ONEWEB-0029             
1 45445U 20020X   25351.20177985 -.00000071  00000+0 -23540-3 0  9997
2 45445  87.8862  57.3013 0001881 102.0776 258.0563 13.11415689278806
ONEWEB-0068             
1 45446U 20020Y   25351.26184650  .00000595  00000+0  16441-2 0  9991
2 45446  87.8863  57.2785 0001945 101.9984 258.1362 13.11417238278757
ONEWEB-0046             
1 45447U 20020Z   25351.25351254  .00000623  00000+0  17217-2 0  9991
2 45447  87.8863  57.2879 0001882 109.5375 250.5957 13.11416077278767
ONEWEB-0063             
1 45448U 20020AA  25351.20602377 -.00000213  00000+0 -63750-3 0  9993
2 45448  87.8863  57.2953 0001722 111.4781 248.6531 13.11418216278849
ONEWEB-0019             
1 45449U 20020AB  25351.24994224  .00000517  00000+0  14097-2 0  9997
2 45449  87.8848  57.2924 0001726  98.1722 261.9602 13.11992145278699
ONEWEB-0094             
1 45450U 20020AC  25351.18393430  .00000011  00000+0 -59614-5 0  9991
2 45450  87.9118  42.0237 0001888  96.2123 263.9224 13.17647463282349
ONEWEB-0087             
1 45451U 20020AD  25351.21605376 -.00000464  00000+0 -13465-2 0  9995
2 45451  87.8871  57.2521 0002037 100.3335 259.8023 13.11415984278732
ONEWEB-0082             
1 45452U 20020AE  25351.21279209 -.00000354  00000+0 -10349-2 0  9994
2 45452  87.8872  57.2779 0002006 100.2755 259.8599 13.11414548278823
ONEWEB-0050             
1 45453U 20020AF  25351.27550502  .00002629  00000+0  27347-3 0  9991
2 45453  88.9241 258.0240 0000397 294.7842  65.3345 14.89580770313294
ONEWEB-0034             
1 45454U 20020AG  25351.23399845 -.00000062  00000+0 -21106-3 0  9997
2 45454  87.8860  57.2871 0001764 101.8348 258.2978 13.11418148278745
ONEWEB-0060             
1 45455U 20020AH  25351.20516520 -.00000183  00000+0 -55225-3 0  9999
2 45455  87.8849  57.3099 0002759  93.5312 266.6131 13.11416250278699
ONEWEB-0086             
1 45456U 20020AJ  25351.26028984  .00000567  00000+0  15647-2 0  9995
2 45456  87.8861  57.2788 0002138  82.7765 277.3606 13.11416500278763
ONEWEB-0088             
1 45457U 20020AK  25351.23824079  .00000163  00000+0  42492-3 0  9993
2 45457  87.8874  57.2392 0001871 110.8397 249.2932 13.11414501278697
ONEWEB-0102             
1 47258U 20100A   25351.15623045  .00000206  00000+0  53598-3 0  9991
2 47258  87.8931  26.8439 0001681  93.5039 266.6282 13.12552595240850
ONEWEB-0109             
1 47259U 20100B   25351.16452055  .00000397  00000+0  10673-2 0  9991
2 47259  87.8937  26.8113 0001683  94.2409 265.8912 13.12504334240687
ONEWEB-0110             
1 47260U 20100C   25351.11486943  .00000020  00000+0  20685-4 0  9990
2 47260  87.8938  26.8053 0001961  89.5666 270.5688 13.12349443240843
ONEWEB-0111             
1 47261U 20100D   25351.14550460 -.00000249  00000+0 -72840-3 0  9994
2 47261  87.8938  26.8172 0001741  95.7084 264.4243 13.12394064240685
ONEWEB-0114             
1 47262U 20100E   25351.17616615  .00000470  00000+0  12705-2 0  9990
2 47262  87.8940  26.8060 0001418  97.9601 262.1688 13.12437150240643
ONEWEB-0117             
1 47263U 20100F   25351.16784311  .00000493  00000+0  13349-2 0  9999
2 47263  87.8937  26.8045 0001809  96.2784 263.8551 13.12484564240650
ONEWEB-0118             
1 47264U 20100G   25351.35359024 -.00000327  00000+0 -94682-3 0  9998
2 47264  87.8938  26.7675 0001529 106.8505 253.2792 13.12293263240876
ONEWEB-0119             
1 47265U 20100H   25351.15124830  .00000006  00000+0 -18851-4 0  9990
2 47265  87.8929  26.8414 0001733  94.7062 265.4265 13.12581122240828
ONEWEB-0120             
1 47266U 20100J   25351.17462888  .00000525  00000+0  14237-2 0  9998
2 47266  87.8929  26.8380 0001687  97.8238 262.3082 13.12449154240852
ONEWEB-0121             
1 47267U 20100K   25351.16288059  .00000369  00000+0  98953-3 0  9998
2 47267  87.8937  26.8092 0001934  92.7186 267.4164 13.12514750240765
ONEWEB-0122             
1 47268U 20100L   25351.15774908  .00000194  00000+0  50276-3 0  9993
2 47268  87.8938  26.8128 0001704  91.4608 268.6715 13.12539826240673
ONEWEB-0123             
1 47269U 20100M   25351.15288717  .00000000  00000+0 -33936-4 0  9994
2 47269  87.8929  26.8397 0001736 100.8550 259.2774 13.12571615240817
ONEWEB-0124             
1 47270U 20100N   25351.14218980 -.00000285  00000+0 -82800-3 0  9999
2 47270  87.8929  26.8462 0001917  98.1008 262.0338 13.12414692240695
ONEWEB-0125             
1 47271U 20100P   25351.34858416 -.00000175  00000+0 -52265-3 0  9996
2 47271  87.8937  26.7689 0001921 103.7236 256.4106 13.12323348240783
ONEWEB-0126             
1 47272U 20100Q   25351.14066412 -.00000361  00000+0 -10378-2 0  9997
2 47272  87.8939  26.8334 0001641  97.3093 262.8222 13.12425222240821
ONEWEB-0127             
1 47273U 20100R   25351.33528135  .00000328  00000+0  87779-3 0  9995
2 47273  87.8933  26.8047 0001657  94.5538 265.5779 13.12401495240875
ONEWEB-0128             
1 47274U 20100S   25351.12891125 -.00000349  00000+0 -10051-2 0  9998
2 47274  87.8927  26.8622 0001933  88.0398 272.0952 13.12491243240862
ONEWEB-0129             
1 47275U 20100T   25351.18446532  .00000227  00000+0  59565-3 0  9990
2 47275  87.8941  26.8057 0000696  72.4755 287.6450 13.12387628240800
ONEWEB-0130             
1 47276U 20100U   25351.13554195 -.00000359  00000+0 -10339-2 0  9994
2 47276  87.8936  26.8105 0001727  93.1936 266.9391 13.12451301240765
ONEWEB-0131             
1 47277U 20100V   25351.36091637 -.00000413  00000+0 -11821-2 0  9995
2 47277  87.8939  26.7959 0001808  95.3658 264.7677 13.12471581240833
ONEWEB-0132             
1 47278U 20100W   25351.16121687  .00000390  00000+0  10466-2 0  9999
2 47278  87.8939  26.8370 0001825  94.9233 265.2104 13.12524238240700
ONEWEB-0133             
1 47279U 20100X   25351.33015606  .00000456  00000+0  12321-2 0  9997
2 47279  87.8933  26.7650 0001882  92.7428 267.3916 13.12430221240881
ONEWEB-0134             
1 47280U 20100Y   25351.14716967 -.00000157  00000+0 -47345-3 0  9991
2 47280  87.8937  26.7969 0001739  87.8237 272.3091 13.12385129240835
ONEWEB-0135             
1 47281U 20100Z   25351.34693291 -.00000055  00000+0 -18944-3 0  9998
2 47281  87.8934  26.7968 0001833  84.1287 276.0051 13.12331868240885
ONEWEB-0136             
1 47282U 20100AA  25351.13719587 -.00000640  00000+0 -18146-2 0  9996
2 47282  87.8940  26.8081 0001645  83.6615 276.4701 13.12442744240781
ONEWEB-0137             
1 47283U 20100AB  25351.17119389  .00000516  00000+0  13973-2 0  9998
2 47283  87.8939  26.8068 0001750 100.4908 259.6418 13.12467127240695
ONEWEB-0138             
1 47284U 20100AC  25351.14955905 -.00000093  00000+0 -29229-3 0  9992
2 47284  87.8942  26.8198 0001685  91.1528 268.9793 13.12590333240779
ONEWEB-0139             
1 47285U 20100AD  25351.18961077  .00000093  00000+0  22458-3 0  9999
2 47285  87.8938  26.8015 0001767  96.3838 263.7492 13.12362853240857
ONEWEB-0140             
1 47286U 20100AE  25351.14384192 -.00000206  00000+0 -60773-3 0  9993
2 47286  87.8940  26.7978 0001728  93.0879 267.0448 13.12403800240816
ONEWEB-0141             
1 47287U 20100AF  25351.34180410  .00000163  00000+0  41922-3 0  9998
2 47287  87.8932  26.7671 0001625 106.2741 253.8567 13.12359635240821
ONEWEB-0142             
1 47288U 20100AG  25351.33046436  .00000389  00000+0  10474-2 0  9994
2 47288  87.8938  26.7925 0001373 102.2560 257.8723 13.12429645240811
ONEWEB-0143             
1 47289U 20100AH  25351.34027391  .00000103  00000+0  25146-3 0  9992
2 47289  87.8936  26.7864 0001763  98.1957 261.9371 13.12370246240792
ONEWEB-0144             
1 47290U 20100AJ  25351.15955221  .00000347  00000+0  92787-3 0  9990
2 47290  87.8937  26.7908 0001470  89.5987 270.5310 13.12534105240690
ONEWEB-0145             
1 47291U 20100AK  25351.13054806 -.00000359  00000+0 -10318-2 0  9992
2 47291  87.8941  26.8354 0001690  96.0515 264.0807 13.12481667240880
ONEWEB-0146             
1 47292U 20100AL  25351.35595251 -.00000374  00000+0 -10747-2 0  9994
2 47292  87.8938  26.7767 0002141  96.8963 263.2409 13.12499887240827
ONEWEB-0147             
1 47293U 20100AM  25351.16951878  .00000463  00000+0  12507-2 0  9998
2 47293  87.8939  26.7922 0001775  86.7109 273.4223 13.12474649240695
ONEWEB-0115             
1 48042U 21025A   25351.03507745 -.00000073  00000+0 -23493-3 0  9990
2 48042  87.8985 356.4185 0001845  91.4804 268.6537 13.13471884229685
ONEWEB-0152             
1 48043U 21025B   25351.27715897 -.00000323  00000+0 -91923-3 0  9997
2 48043  87.8971 356.3769 0001919  89.6672 270.4677 13.13471035229675
ONEWEB-0153             
1 48044U 21025C   25351.25515562  .00000110  00000+0  26767-3 0  9999
2 48044  87.8981 356.3868 0001709  91.1213 269.0112 13.13470797229664
ONEWEB-0154             
1 48045U 21025D   25351.25176545  .00000210  00000+0  53971-3 0  9992
2 48045  87.8982 356.3839 0001786  88.0984 272.0350 13.13470950229624
ONEWEB-0116             
1 48046U 21025E   25351.29069254 -.00000192  00000+0 -56202-3 0  9996
2 48046  87.8986 356.3607 0001909  90.2367 269.8981 13.13471715229779
ONEWEB-0150             
1 48047U 21025F   25351.26699637 -.00000253  00000+0 -72665-3 0  9997
2 48047  87.8987 356.3612 0001695  96.3182 263.8140 13.13467958229664
ONEWEB-0107             
1 48048U 21025G   25351.26869228 -.00000194  00000+0 -56697-3 0  9994
2 48048  87.8986 356.3574 0001501  89.0043 271.1258 13.13471546229640
ONEWEB-0101             
1 48049U 21025H   25351.30761842  .00000292  00000+0  76415-3 0  9990
2 48049  87.8977 356.3825 0001665  85.1581 274.9738 13.13472874229622
ONEWEB-0113             
1 48050U 21025J   25351.24600485  .00000294  00000+0  76411-3 0  9998
2 48050  87.8984 356.3231 0001939  96.3472 263.7879 13.13985455229716
ONEWEB-0112             
1 48051U 21025K   25351.27376247 -.00000294  00000+0 -83985-3 0  9994
2 48051  87.8986 356.3537 0001737  92.5667 267.5661 13.13471975229716
